Name,Address,Zip code,Phone number
6254 Wilshire Blvd,Los Angeles ,CA,90048
5931 Franklin Ave,Los Angeles ,CA,90028
6801 Hollywood Blvd Ste 157,Los Angeles ,CA,90028
3922 W Sunset Blvd,Los Angeles ,CA,90029
1501 N Cahuenga Blvd,Los Angeles ,CA,90028
2122 Colorado Blvd,Los Angeles ,CA,90041
1559 Echo Park Ave,Los Angeles ,CA,90026
1202 N Alvarado St,Los Angeles ,CA,90026
5625 Hollywood Blvd,Los Angeles ,CA,90028
1651 W Temple St,Los Angeles ,CA,90026
3932 W Sunset Blvd,Los Angeles ,CA,90029
400 S Main St,Los Angeles ,CA,90013
8536 W Pico Blvd,Los Angeles ,CA,90035
2160 Colorado Blvd,Los Angeles ,CA,90041
12225 Wilshire Blvd,Los Angeles ,CA,90025
1869 N Vermont Ave,Los Angeles ,CA,90027
6710 La Tijera Blvd,Los Angeles ,CA,90045
2538 Hyperion Ave,Los Angeles ,CA,90027
11623 Santa Monica Blvd,Los Angeles ,CA,90025
4520 W Sunset Blvd,Los Angeles ,CA,90027
13016 San Vicente Blvd,Los Angeles ,CA,90049
10946 Weyburn Ave,Los Angeles ,CA,90024
2130 Sawtelle Blvd,Los Angeles ,CA,90025
403 N Larchmont Blvd,Los Angeles ,CA,90004
12008 Wilshire blvd # 101,Los Angeles ,CA,90025
148 S Barrington Ave,Los Angeles ,CA,90049
2650 N Vermont Ave,Los Angeles ,CA,90027
2111 Sawtelle Blvd,Los Angeles ,CA,90025
5183 Hollywood Blvd,Los Angeles ,CA,90027
11267 National Blvd,Los Angeles ,CA,90064
11267 National Blvd,Riverside ,CA,92508
